NORAD_CAT_ID,OBJECT_NAME,OBJECT_TYPE,EPOCH,MEAN_MOTION,ECCENTRICITY,INCLINATION,RA_OF_ASC_NODE,ARG_OF_PERICENTER,MEAN_ANOMALY,BSTAR,MEAN_MOTION_DOT,MEAN_MOTION_DDOT,TLE_LINE0,TLE_LINE1,TLE_LINE2,SEMIMAJOR_AXIS,PERIOD,APOGEE,PERIGEE,DECAYED
53015.0,STARLINK-4262,PAYLOAD,2024-08-21 01:30:13,15.08850808,0.0001256,53.2167,103.3176,97.5737,262.5398,4.4155e-05,4.15e-06,0.0,0 STARLINK-4262,1 53015U 22076AF  24234.06265296  .00000415  00000-0  44155-4 0  9995,2 53015  53.2167 103.3176 0001256  97.5737 262.5398 15.08850808118067,6917.847,95.437,540.581,538.843,0.0
53015.0,STARLINK-4262,PAYLOAD,2024-08-21 20:34:51,15.08831062,0.0001299,53.2172,99.749,99.7507,260.3632,3.8902e-05,3.31e-06,0.0,0 STARLINK-4262,1 53015U 22076AF  24234.85754541  .00000331  00000-0  38902-4 0  9998,2 53015  53.2172  99.7490 0001299  99.7507 260.3632 15.08831062118187,6917.908,95.438,540.671,538.874,0.0
